{"spkid": "50602806", "covariance": {"epoch": "2456747.5", "elements": [{"label": "e", "title": "eccentricity", "value": ".7288702378728424", "units": null, "sigma": 4.52446752438876e-08, "name": "e"}, {"label": "q", "sigma": 1.18928804022428e-07, "name": "q", "units": "au", "title": "perihelion distance", "value": ".666072393794175"}, {"label": "tp", "title": "time of perihelion passage", "value": "2457378.103699405991", "units": "TDB", "name": "tp", "sigma": 2.05938612465695e-05}, {"label": "node", "name": "om", "sigma": 9.10407044334178e-06, "value": "214.7626846658536", "title": "longitude of the ascending node", "units": "deg"}, {"label": "peri", "units": "deg", "title": "argument of perihelion", "value": "256.6389236054663", "sigma": 1.48492563544908e-05, "name": "w"}, {"label": "i", "sigma": 1.82765696706307e-05, "name": "i", "title": "inclination", "value": "25.61973106550864", "units": "deg"}], "data": [["2.047080637924853E-15", "-5.373274420651227E-15", "1.121849110416939E-13", "-2.176077149368534E-14", "3.968238935988818E-13", "7.263056012612855E-15"], ["-5.373274420651227E-15", "1.414406042620505E-14", "-1.927164708630681E-13", "4.793095354403867E-14", "-1.039445638903956E-12", "2.510644024414918E-15"], ["1.121849110416939E-13", "-1.927164708630681E-13", "4.241071210429556E-10", "-3.302159919401095E-11", "1.300909921018594E-10", "7.881060713808302E-11"], ["-2.176077149368534E-14", "4.793095354403867E-14", "-3.302159919401095E-11", "8.288409863732948E-11", "-8.165666558769438E-11", "-8.842377903577568E-11"], ["3.968238935988818E-13", "-1.039445638903956E-12", "1.300909921018594E-10", "-8.165666558769438E-11", "2.205004142813851E-10", "9.142529566423854E-11"], ["7.263056012612855E-15", "2.510644024414918E-15", "7.881060713808302E-11", "-8.842377903577568E-11", "9.142529566423854E-11", "3.340329989254184E-10"]], "labels": ["e", "q", "tp", "node", "peri", "i"]}, "elements": [{"label": "e", "name": "e", "sigma": "4.4686E-8", "units": null, "value": ".7278773589324727", "title": "eccentricity"}, {"sigma": "3.4661E-8", "name": "a", "title": "semi-major axis", "value": "2.459910821988796", "units": "au", "label": "a"}, {"name": "q", "sigma": "1.1738E-7", "value": ".6693974296701831", "title": "perihelion distance", "units": "au", "label": "q"}, {"sigma": "1.8288E-5", "name": "i", "value": "25.58009240213677", "title": "inclination; angle with respect to x-y ecliptic plane", "units": "deg", "label": "i"}, {"label": "node", "sigma": "9.0198E-6", "name": "om", "title": "longitude of the ascending node", "value": "214.4580537070701", "units": "deg"}, {"label": "peri", "sigma": "1.4942E-5", "name": "w", "value": "256.8649564766873", "title": "argument of perihelion", "units": "deg"}, {"sigma": "2.3383E-5", "name": "ma", "units": "deg", "title": "mean anomaly", "value": "257.8451253888804", "label": "M"}, {"label": "tp", "sigma": "9.9818E-5", "name": "tp", "units": "TDB", "title": "time of perihelion passage", "value": "2461600.384035146315"}, {"units": "d", "title": "sidereal orbital period", "value": "1409.215695292956", "name": "per", "sigma": "2.9785E-5", "label": "period"}, {"title": "mean motion", "value": ".2554612478433695", "units": "deg/d", "sigma": "5.3993E-9", "name": "n", "label": "n"}, {"name": "ad", "sigma": "5.989E-8", "units": "au", "value": "4.250424214307409", "title": "aphelion distance", "label": "Q"}], "epoch": "2461200.5"}